{"type": "FeatureCollection", "features": [ {"type": "Feature", "properties": {"norad_id": 32260, "name": "GPS BIIRM-4 (PRN 15)", "group": "gnss", "lat": -4.083930189819529, "lon": -89.62050225642375, "alt_km": 20249.508765186525, "timestamp": "2025-12-21T11:31:43.096674+00:00", "meta": {"OBJECT_NAME": "GPS BIIRM-4 (PRN 15)", "OBJECT_ID": "2007-047A", "EPOCH": "2025-12-19T17:36:20.095488", "MEAN_MOTION": 2.00564284, "ECCENTRICITY": 0.01640625, "INCLINATION": 53.9598, "RA_OF_ASC_NODE": 87.4696, "ARG_OF_PERICENTER": 85.3303, "MEAN_ANOMALY": 276.5412, "EPHEMERIS_TYPE": 0, "CLASSIFICATION_TYPE": "U", "NORAD_CAT_ID": 32260, "ELEMENT_SET_NO": 999, "REV_AT_EPOCH": 13321, "BSTAR": 0, "MEAN_MOTION_DOT": -3.5e-07, "MEAN_MOTION_DDOT": 0}, "tle": {"line1": "1 32260U 07047A   25353.73356592 -.00000035  00000+0  00000+0 0  9996", "line2": "2 32260  53.9598  87.4696 0164062  85.3303 276.5412  2.00564284133213"}}, "geometry": {"type": "Point", "coordinates": [-89.62050225642375, -4.083930189819529]}}, {"type": "Feature", "properties": {"norad_id": 32275, "name": "COSMOS 2433 (720)", "group": "gnss", "lat": -38.16865291184497, "lon": -58.91850297985258, "alt_km": 19128.314770127658, "timestamp": "2025-12-21T11:31:43.096687+00:00", "meta": {"OBJECT_NAME": "COSMOS 2433 (720)", "OBJECT_ID": "2007-052A", "EPOCH": "2025-12-21T01:36:08.610912", "MEAN_MOTION": 2.13104226, "ECCENTRICITY": 0.0005187, "INCLINATION": 65.6786, "RA_OF_ASC_NODE": 321.9257, "ARG_OF_PERICENTER": 255.4545, "MEAN_ANOMALY": 104.4812, "EPHEMERIS_TYPE": 0, "CLASSIFICATION_TYPE": "U", "NORAD_CAT_ID": 32275, "ELEMENT_SET_NO": 999, "REV_AT_EPOCH": 14126, "BSTAR": 0, "MEAN_MOTION_DOT": -4.8e-07, "MEAN_MOTION_DDOT": 0}, "tle": {"line1": "1 32275U 07052A   25355.06676633 -.00000048  00000+0  00000+0 0  9991", "line2": "2 32275  65.6786 321.9257 0005187 255.4545 104.4812  2.13104226141264"}}, "geometry": {"type": "Point", "coordinates": [-58.91850297985258, -38.16865291184497]}}, {"type": "Feature", "properties": {"norad_id": 32276, "name": "COSMOS 2432 (719)", "group": "gnss", "lat": -64.36685826852352, "lon": -147.69434236194255, "alt_km": 19118.785286466435, "timestamp": "2025-12-21T11:31:43.096699+00:00", "meta": {"OBJECT_NAME": "COSMOS 2432 (719)", "OBJECT_ID": "2007-052B", "EPOCH": "2025-12-21T05:56:02.961600", "MEAN_MOTION": 2.13103424, "ECCENTRICITY": 0.0011337, "INCLINATION": 65.6945, "RA_OF_ASC_NODE": 322.044, "ARG_OF_PERICENTER": 314.296, "MEAN_ANOMALY": 128.5462, "EPHEMERIS_TYPE": 0, "CLASSIFICATION_TYPE": "U", "NORAD_CAT_ID": 32276, "ELEMENT_SET_NO": 999, "REV_AT_EPOCH": 14129, "BSTAR": 0, "MEAN_MOTION_DOT": -4.7e-07, "MEAN_MOTION_DDOT": 0}, "tle": {"line1": "1 32276U 07052B   25355.24725650 -.00000047  00000+0  00000+0 0  9995", "line2": "2 32276  65.6945 322.0440 0011337 314.2960 128.5462  2.13103424141297"}}, "geometry": {"type": "Point", "coordinates": [-147.69434236194255, -64.36685826852352]}}, {"type": "Feature", "properties": {"norad_id": 32384, "name": "GPS BIIRM-5 (PRN 29)", "group": "gnss", "lat": -36.97202579005804, "lon": -110.26712407531777, "alt_km": 20260.22935899621, "timestamp": "2025-12-21T11:31:43.096711+00:00", "meta": {"OBJECT_NAME": "GPS BIIRM-5 (PRN 29)", "OBJECT_ID": "2007-062A", "EPOCH": "2025-12-19T04:08:10.010976", "MEAN_MOTION": 2.00577702, "ECCENTRICITY": 0.00322663, "INCLINATION": 55.1765, "RA_OF_ASC_NODE": 281.388, "ARG_OF_PERICENTER": 162.2119, "MEAN_ANOMALY": 283.9132, "EPHEMERIS_TYPE": 0, "CLASSIFICATION_TYPE": "U", "NORAD_CAT_ID": 32384, "ELEMENT_SET_NO": 999, "REV_AT_EPOCH": 13190, "BSTAR": 0, "MEAN_MOTION_DOT": -3.8e-07, "MEAN_MOTION_DDOT": 0}, "tle": {"line1": "1 32384U 07062A   25353.17233809 -.00000038  00000+0  00000+0 0  9996", "line2": "2 32384  55.1765 281.3880 0032266 162.2119 283.9132  2.00577702131904"}}, "geometry": {"type": "Point", "coordinates": [-110.26712407531777, -36.97202579005804]}}, {"type": "Feature", "properties": {"norad_id": 32393, "name": "COSMOS 2434 (721)", "group": "gnss", "lat": -24.89385056465516, "lon": 30.824993450934368, "alt_km": 19142.25185490191, "timestamp": "2025-12-21T11:31:43.096723+00:00", "meta": {"OBJECT_NAME": "COSMOS 2434 (721)", "OBJECT_ID": "2007-065A", "EPOCH": "2025-12-20T12:03:15.367680", "MEAN_MOTION": 2.13101459, "ECCENTRICITY": 0.00047811, "INCLINATION": 64.3153, "RA_OF_ASC_NODE": 197.9412, "ARG_OF_PERICENTER": 71.786, "MEAN_ANOMALY": 105.6785, "EPHEMERIS_TYPE": 0, "CLASSIFICATION_TYPE": "U", "NORAD_CAT_ID": 32393, "ELEMENT_SET_NO": 999, "REV_AT_EPOCH": 13996, "BSTAR": 0, "MEAN_MOTION_DOT": 1e-06, "MEAN_MOTION_DDOT": 0}, "tle": {"line1": "1 32393U 07065A   25354.50226120  .00000100  00000+0  00000+0 0  9994", "line2": "2 32393  64.3153 197.9412 0004781  71.7860 105.6785  2.13101459139962"}}, "geometry": {"type": "Point", "coordinates": [30.824993450934368, -24.89385056465516]}}, {"type": "Feature", "properties": {"norad_id": 32395, "name": "COSMOS 2436 (723)", "group": "gnss", "lat": -17.32669370414289, "lon": -170.65286236043517, "alt_km": 19093.142255696614, "timestamp": "2025-12-21T11:31:43.096735+00:00", "meta": {"OBJECT_NAME": "COSMOS 2436 (723)", "OBJECT_ID": "2007-065C", "EPOCH": "2025-12-21T05:24:13.396320", "MEAN_MOTION": 2.13100316, "ECCENTRICITY": 0.0017785, "INCLINATION": 64.3243, "RA_OF_ASC_NODE": 197.9873, "ARG_OF_PERICENTER": 10.0202, "MEAN_ANOMALY": 135.0649, "EPHEMERIS_TYPE": 0, "CLASSIFICATION_TYPE": "U", "NORAD_CAT_ID": 32395, "ELEMENT_SET_NO": 999, "REV_AT_EPOCH": 13993, "BSTAR": 0, "MEAN_MOTION_DOT": 9.7e-07, "MEAN_MOTION_DDOT": 0}, "tle": {"line1": "1 32395U 07065C   25355.22515505  .00000097  00000+0  00000+0 0  9999", "line2": "2 32395  64.3243 197.9873 0017785  10.0202 135.0649  2.13100316139933"}}, "geometry": {"type": "Point", "coordinates": [-170.65286236043517, -17.32669370414289]}}, {"type": "Feature", "properties": {"norad_id": 32711, "name": "GPS BIIRM-6 (PRN 07)", "group": "gnss", "lat": -42.71863331619915, "lon": 18.29828824154538, "alt_km": 19654.583444805667, "timestamp": "2025-12-21T11:31:43.096747+00:00", "meta": {"OBJECT_NAME": "GPS BIIRM-6 (PRN 07)", "OBJECT_ID": "2008-012A", "EPOCH": "2025-12-19T15:41:26.858112", "MEAN_MOTION": 2.00565937, "ECCENTRICITY": 0.0202735, "INCLINATION": 54.4779, "RA_OF_ASC_NODE": 157.0969, "ARG_OF_PERICENTER": 245.0276, "MEAN_ANOMALY": 112.8468, "EPHEMERIS_TYPE": 0, "CLASSIFICATION_TYPE": "U", "NORAD_CAT_ID": 32711, "ELEMENT_SET_NO": 999, "REV_AT_EPOCH": 13015, "BSTAR": 0, "MEAN_MOTION_DOT": 6.7e-07, "MEAN_MOTION_DDOT": 0}, "tle": {"line1": "1 32711U 08012A   25353.65378308  .00000067  00000+0  00000+0 0  9994", "line2": "2 32711  54.4779 157.0969 0202735 245.0276 112.8468  2.00565937130151"}}, "geometry": {"type": "Point", "coordinates": [18.29828824154538, -42.71863331619915]}}, {"type": "Feature", "properties": {"norad_id": 35752, "name": "GPS BIIRM-8 (PRN 05)", "group": "gnss", "lat": -53.872261884454694, "lon": -78.49735190586459, "alt_km": 20324.775559463535, "timestamp": "2025-12-21T11:31:43.096758+00:00", "meta": {"OBJECT_NAME": "GPS BIIRM-8 (PRN 05)", "OBJECT_ID": "2009-043A", "EPOCH": "2025-12-20T02:09:52.509312", "MEAN_MOTION": 2.00565329, "ECCENTRICITY": 0.00516467, "INCLINATION": 56.096, "RA_OF_ASC_NODE": 34.4932, "ARG_OF_PERICENTER": 81.7821, "MEAN_ANOMALY": 251.1308, "EPHEMERIS_TYPE": 0, "CLASSIFICATION_TYPE": "U", "NORAD_CAT_ID": 35752, "ELEMENT_SET_NO": 999, "REV_AT_EPOCH": 11976, "BSTAR": 0, "MEAN_MOTION_DOT": -6.1e-07, "MEAN_MOTION_DDOT": 0}, "tle": {"line1": "1 35752U 09043A   25354.09019108 -.00000061  00000+0  00000+0 0  9991", "line2": "2 35752  56.0960  34.4932 0051646  81.7821 251.1308  2.00565329119760"}}, "geometry": {"type": "Point", "coordinates": [-78.49735190586459, -53.872261884454694]}}, {"type": "Feature", "properties": {"norad_id": 36111, "name": "COSMOS 2456 (730)", "group": "gnss", "lat": 4.483519044847246, "lon": 79.15560148638198, "alt_km": 19126.57603432473, "timestamp": "2025-12-21T11:31:43.096770+00:00", "meta": {"OBJECT_NAME": "COSMOS 2456 (730)", "OBJECT_ID": "2009-070A", "EPOCH": "2025-12-20T03:13:18.516576", "MEAN_MOTION": 2.13103685, "ECCENTRICITY": 0.00033011, "INCLINATION": 64.904, "RA_OF_ASC_NODE": 77.0852, "ARG_OF_PERICENTER": 296.9564, "MEAN_ANOMALY": 115.2996, "EPHEMERIS_TYPE": 0, "CLASSIFICATION_TYPE": "U", "NORAD_CAT_ID": 36111, "ELEMENT_SET_NO": 999, "REV_AT_EPOCH": 12461, "BSTAR": 0, "MEAN_MOTION_DOT": -2.2e-07, "MEAN_MOTION_DDOT": 0}, "tle": {"line1": "1 36111U 09070A   25354.13424209 -.00000022  00000+0  00000+0 0  9995", "line2": "2 36111  64.9040  77.0852 0003301 296.9564 115.2996  2.13103685124610"}}, "geometry": {"type": "Point", "coordinates": [79.15560148638198, 4.483519044847246]}}, {"type": "Feature", "properties": {"norad_id": 36112, "name": "COSMOS 2457 (733)", "group": "gnss", "lat": 40.65251820630473, "lon": -126.80206325136928, "alt_km": 19115.101027330573, "timestamp": "2025-12-21T11:31:43.096782+00:00", "meta": {"OBJECT_NAME": "COSMOS 2457 (733)", "OBJECT_ID": "2009-070B", "EPOCH": "2025-12-21T01:50:33.569952", "MEAN_MOTION": 2.13101099, "ECCENTRICITY": 0.0004535, "INCLINATION": 64.8901, "RA_OF_ASC_NODE": 76.9001, "ARG_OF_PERICENTER": 162.2695, "MEAN_ANOMALY": 22.1351, "EPHEMERIS_TYPE": 0, "CLASSIFICATION_TYPE": "U", "NORAD_CAT_ID": 36112, "ELEMENT_SET_NO": 999, "REV_AT_EPOCH": 12463, "BSTAR": 0, "MEAN_MOTION_DOT": -1.4e-07, "MEAN_MOTION_DDOT": 0}, "tle": {"line1": "1 36112U 09070B   25355.07677743 -.00000014  00000+0  00000+0 0  9994", "line2": "2 36112  64.8901  76.9001 0004535 162.2695  22.1351  2.13101099124630"}}, "geometry": {"type": "Point", "coordinates": [-126.80206325136928, 40.65251820630473]}}]}